{
  "type": "FeatureCollection",
  "features": [
    {
      "type": "Feature",
      "properties": {
        "norad_id": 36585,
        "name": "GPS BIIF-1  (PRN 25)",
        "group": "gnss",
        "lat": 47.2550090063351,
        "lon": -15.389762979293678,
        "alt_km": 19959.021693254457,
        "timestamp": "2025-12-22T14:45:57.644142+00:00",
        "meta_object_name": "GPS BIIF-1  (PRN 25)",
        "meta_object_id": "2010-022A",
        "meta_epoch": "2025-12-22T05:20:22.074144",
        "meta_mean_motion": 2.00553706,
        "meta_eccentricity": 0.01264918,
        "meta_inclination": 54.2987,
        "meta_ra_of_asc_node": 215.6915,
        "meta_arg_of_pericenter": 65.1953,
        "meta_mean_anomaly": 125.3997,
        "meta_ephemeris_type": 0,
        "meta_classification_type": "U",
        "meta_norad_cat_id": 36585,
        "meta_element_set_no": 999,
        "meta_rev_at_epoch": 11404,
        "meta_bstar": 0,
        "meta_mean_motion_dot": 7.4e-07,
        "meta_mean_motion_ddot": 0,
        "tle_line1": "1 36585U 10022A   25356.22247771  .00000074  00000+0  00000+0 0  9994",
        "tle_line2": "2 36585  54.2987 215.6915 0126491  65.1953 125.3997  2.00553706114049"
      },
      "geometry": {
        "type": "Point",
        "coordinates": [
          -15.389762979293678,
          47.2550090063351
        ]
      }
    },
    {
      "type": "Feature",
      "properties": {
        "norad_id": 36828,
        "name": "BEIDOU-2 IGSO-1 (C06)",
        "group": "gnss",
        "lat": -52.1806031911474,
        "lon": 52.65981256544281,
        "alt_km": 35625.68620163099,
        "timestamp": "2025-12-22T14:45:57.644154+00:00",
        "meta_object_name": "BEIDOU-2 IGSO-1 (C06)",
        "meta_object_id": "2010-036A",
        "meta_epoch": "2025-12-20T21:47:26.739168",
        "meta_mean_motion": 1.00282395,
        "meta_eccentricity": 0.0051798,
        "meta_inclination": 54.2882,
        "meta_ra_of_asc_node": 164.5739,
        "meta_arg_of_pericenter": 215.2932,
        "meta_mean_anomaly": 144.6604,
        "meta_ephemeris_type": 0,
        "meta_classification_type": "U",
        "meta_norad_cat_id": 36828,
        "meta_element_set_no": 999,
        "meta_rev_at_epoch": 5631,
        "meta_bstar": 0,
        "meta_mean_motion_dot": -5.5e-07,
        "meta_mean_motion_ddot": 0,
        "tle_line1": "1 36828U 10036A   25354.90794837 -.00000055  00000+0  00000+0 0  9992",
        "tle_line2": "2 36828  54.2882 164.5739 0051798 215.2932 144.6604  1.00282395 56317"
      },
      "geometry": {
        "type": "Point",
        "coordinates": [
          52.65981256544281,
          -52.1806031911474
        ]
      }
    },
    {
      "type": "Feature",
      "properties": {
        "norad_id": 37210,
        "name": "BEIDOU-2 G4 (C04)",
        "group": "gnss",
        "lat": 2.212191040304535,
        "lon": 112.88365156476549,
        "alt_km": 35824.06315803857,
        "timestamp": "2025-12-22T14:45:57.644170+00:00",
        "meta_object_name": "BEIDOU-2 G4 (C04)",
        "meta_object_id": "2010-057A",
        "meta_epoch": "2025-12-22T05:22:00.430176",
        "meta_mean_motion": 1.00271926,
        "meta_eccentricity": 0.00104047,
        "meta_inclination": 3.2067,
        "meta_ra_of_asc_node": 69.9031,
        "meta_arg_of_pericenter": 193.2765,
        "meta_mean_anomaly": 68.4387,
        "meta_ephemeris_type": 0,
        "meta_classification_type": "U",
        "meta_norad_cat_id": 37210,
        "meta_element_set_no": 999,
        "meta_rev_at_epoch": 5551,
        "meta_bstar": 0,
        "meta_mean_motion_dot": -9.1e-07,
        "meta_mean_motion_ddot": 0,
        "tle_line1": "1 37210U 10057A   25356.22361609 -.00000091  00000+0  00000+0 0  9995",
        "tle_line2": "2 37210   3.2067  69.9031 0010404 193.2765  68.4387  1.00271926 55513"
      },
      "geometry": {
        "type": "Point",
        "coordinates": [
          112.88365156476549,
          2.212191040304535
        ]
      }
    },
    {
      "type": "Feature",
      "properties": {
        "norad_id": 37256,
        "name": "BEIDOU-2 IGSO-2 (C07)",
        "group": "gnss",
        "lat": 24.308905109995866,
        "lon": 69.94446195425968,
        "alt_km": 35709.084281976604,
        "timestamp": "2025-12-22T14:45:57.644182+00:00",
        "meta_object_name": "BEIDOU-2 IGSO-2 (C07)",
        "meta_object_id": "2010-068A",
        "meta_epoch": "2025-12-21T17:07:55.147872",
        "meta_mean_motion": 1.00283664,
        "meta_eccentricity": 0.00485428,
        "meta_inclination": 47.8695,
        "meta_ra_of_asc_node": 274.0391,
        "meta_arg_of_pericenter": 216.3693,
        "meta_mean_anomaly": 325.0635,
        "meta_ephemeris_type": 0,
        "meta_classification_type": "U",
        "meta_norad_cat_id": 37256,
        "meta_element_set_no": 999,
        "meta_rev_at_epoch": 5501,
        "meta_bstar": 0,
        "meta_mean_motion_dot": -1.86e-06,
        "meta_mean_motion_ddot": 0,
        "tle_line1": "1 37256U 10068A   25355.71383273 -.00000186  00000+0  00000+0 0  9996",
        "tle_line2": "2 37256  47.8695 274.0391 0048542 216.3693 325.0635  1.00283664 55018"
      },
      "geometry": {
        "type": "Point",
        "coordinates": [
          69.94446195425968,
          24.308905109995866
        ]
      }
    },
    {
      "type": "Feature",
      "properties": {
        "norad_id": 37384,
        "name": "BEIDOU-2 IGSO-3 (C08)",
        "group": "gnss",
        "lat": 16.04766835543417,
        "lon": 50.59979765490955,
        "alt_km": 35932.272682972405,
        "timestamp": "2025-12-22T14:45:57.644195+00:00",
        "meta_object_name": "BEIDOU-2 IGSO-3 (C08)",
        "meta_object_id": "2011-013A",
        "meta_epoch": "2025-12-21T13:47:18.522816",
        "meta_mean_motion": 1.00268792,
        "meta_eccentricity": 0.00353792,
        "meta_inclination": 62.1546,
        "meta_ra_of_asc_node": 41.8324,
        "meta_arg_of_pericenter": 187.6182,
        "meta_mean_anomaly": 175.1134,
        "meta_ephemeris_type": 0,
        "meta_classification_type": "U",
        "meta_norad_cat_id": 37384,
        "meta_element_set_no": 999,
        "meta_rev_at_epoch": 5388,
        "meta_bstar": 0,
        "meta_mean_motion_dot": -1.61e-06,
        "meta_mean_motion_ddot": 0,
        "tle_line1": "1 37384U 11013A   25355.57451994 -.00000161  00000+0  00000+0 0  9992",
        "tle_line2": "2 37384  62.1546  41.8324 0035379 187.6182 175.1134  1.00268792 53884"
      },
      "geometry": {
        "type": "Point",
        "coordinates": [
          50.59979765490955,
          16.04766835543417
        ]
      }
    },
    {
      "type": "Feature",
      "properties": {
        "norad_id": 37605,
        "name": "GSAT-8 (GAGAN/PRN 127)",
        "group": "gnss",
        "lat": -1.6246053855445077,
        "lon": 8.079389222260307,
        "alt_km": 35791.89909160073,
        "timestamp": "2025-12-22T14:45:57.644207+00:00",
        "meta_object_name": "GSAT-8 (GAGAN/PRN 127)",
        "meta_object_id": "2011-022A",
        "meta_epoch": "2025-12-22T03:09:20.634912",
        "meta_mean_motion": 1.00270864,
        "meta_eccentricity": 0.00088636,
        "meta_inclination": 1.6725,
        "meta_ra_of_asc_node": 84.0981,
        "meta_arg_of_pericenter": 185.6331,
        "meta_mean_anomaly": 283.6166,
        "meta_ephemeris_type": 0,
        "meta_classification_type": "U",
        "meta_norad_cat_id": 37605,
        "meta_element_set_no": 999,
        "meta_rev_at_epoch": 5144,
        "meta_bstar": 0,
        "meta_mean_motion_dot": 1.06e-06,
        "meta_mean_motion_ddot": 0,
        "tle_line1": "1 37605U 11022A   25356.13148883  .00000106  00000+0  00000+0 0  9999",
        "tle_line2": "2 37605   1.6725  84.0981 0008863 185.6331 283.6166  1.00270864 51440"
      },
      "geometry": {
        "type": "Point",
        "coordinates": [
          8.079389222260307,
          -1.6246053855445077
        ]
      }
    },
    {
      "type": "Feature",
      "properties": {
        "norad_id": 37763,
        "name": "BEIDOU-2 IGSO-4 (C09)",
        "group": "gnss",
        "lat": -45.24322092681103,
        "lon": 33.184204631827015,
        "alt_km": 35171.58735528749,
        "timestamp": "2025-12-22T14:45:57.644220+00:00",
        "meta_object_name": "BEIDOU-2 IGSO-4 (C09)",
        "meta_object_id": "2011-038A",
        "meta_epoch": "2025-12-21T10:06:26.864064",
        "meta_mean_motion": 1.00280083,
        "meta_eccentricity": 0.01491557,
        "meta_inclination": 54.5854,
        "meta_ra_of_asc_node": 167.2693,
        "meta_arg_of_pericenter": 230.0944,
        "meta_mean_anomaly": 299.1265,
        "meta_ephemeris_type": 0,
        "meta_classification_type": "U",
        "meta_norad_cat_id": 37763,
        "meta_element_set_no": 999,
        "meta_rev_at_epoch": 5286,
        "meta_bstar": 0,
        "meta_mean_motion_dot": 5.9e-07,
        "meta_mean_motion_ddot": 0,
        "tle_line1": "1 37763U 11038A   25355.42114426  .00000059  00000+0  00000+0 0  9995",
        "tle_line2": "2 37763  54.5854 167.2693 0149155 230.0944 299.1265  1.00280083 52867"
      },
      "geometry": {
        "type": "Point",
        "coordinates": [
          33.184204631827015,
          -45.24322092681103
        ]
      }
    }
  ]
}